NORAD_CAT_ID,OBJECT_NAME,OBJECT_TYPE,EPOCH,MEAN_MOTION,ECCENTRICITY,INCLINATION,RA_OF_ASC_NODE,ARG_OF_PERICENTER,MEAN_ANOMALY,BSTAR,MEAN_MOTION_DOT,MEAN_MOTION_DDOT,TLE_LINE0,TLE_LINE1,TLE_LINE2,SEMIMAJOR_AXIS,PERIOD,APOGEE,PERIGEE,DECAYED
53965.0,STARLINK-4578,PAYLOAD,2022-11-23 12:00:02,15.08839223,0.0001848,53.2166,221.075,50.3784,203.9368,-0.0011282,-0.00018198,0.0,0 STARLINK-4578,1 53965U 22125B   22327.50002315 -.00018198  00000-0 -11282-2 0  9997,2 53965  53.2166 221.0750 0001848  50.3784 203.9368 15.08839223  7894,6917.8830000000025,95.438,541.026,538.469,0.0
53965.0,STARLINK-4578,PAYLOAD,2022-11-23 14:00:01,15.08818588,0.0001825,53.2164,220.7007,51.7986,295.3571,0.00098867,0.00015473,0.0,0 STARLINK-4578,1 53965U 22125B   22327.58334491  .00015473  00000-0  98867-3 0  9994,2 53965  53.2164 220.7007 0001825  51.7986 295.3571 15.08818588  1309,6917.946,95.439,541.073,538.548,0.0
53965.0,STARLINK-4578,PAYLOAD,2022-11-23 22:00:00,15.08833603,0.0001956,53.2164,219.2056,48.9891,309.7396,-0.0012087,-0.0001947,0.0,0 STARLINK-4578,1 53965U 22125B   22327.91667824 -.00019470  00000-0 -12087-2 0  9992,2 53965  53.2164 219.2056 0001956  48.9891 309.7396 15.08833603  1304,6917.9,95.438,541.118,538.4119999999998,0.0
53965.0,STARLINK-4578,PAYLOAD,2022-11-24 12:00:00,15.08819721,0.0001874,53.2164,216.5861,51.2535,237.7506,0.0020992,0.0003326,0.0,0 STARLINK-4578,1 53965U 22125B   22328.50001157  .00033260  00000-0  20992-2 0  9994,2 53965  53.2164 216.5861 0001874  51.2535 237.7506 15.08819721  8045,6917.941999999999,95.439,541.104,538.511,0.0
53965.0,STARLINK-4578,PAYLOAD,2022-11-24 14:00:01,15.08812014,0.0001855,53.2162,216.2118,52.8722,329.0299,0.0033893,0.00054025,0.0,0 STARLINK-4578,1 53965U 22125B   22328.58334491  .00054025  00000-0  33893-2 0  9998,2 53965  53.2162 216.2118 0001855  52.8722 329.0299 15.08812014  1303,6917.965999999999,95.439,541.114,538.548,0.0
53965.0,STARLINK-4578,PAYLOAD,2022-11-24 22:00:00,15.0885417,0.0002009,53.2162,214.7169,50.3205,343.1648,-0.0012439,-0.00020038,0.0,0 STARLINK-4578,1 53965U 22125B   22328.91667824 -.00020038  00000-0 -12439-2 0  9996,2 53965  53.2162 214.7169 0002009  50.3205 343.1648 15.08854170  1307,6917.837,95.437,541.092,538.312,0.0
53965.0,STARLINK-4578,PAYLOAD,2022-11-25 04:00:01,15.08839552,0.0002023,53.2159,213.5951,46.9901,265.263,0.0010417,0.00016329,0.0,0 STARLINK-4578,1 53965U 22125B   22329.16668981  .00016329  00000-0  10417-2 0  9999,2 53965  53.2159 213.5951 0002023  46.9901 265.2630 15.08839552  8151,6917.882,95.438,541.146,538.347,0.0
53965.0,STARLINK-4578,PAYLOAD,2022-11-25 14:00:01,15.08807484,0.0001785,53.2158,211.7227,52.86600000000001,3.8391,0.0032869,0.00052365,0.0,0 STARLINK-4578,1 53965U 22125B   22329.58334491  .00052365  00000-0  32869-2 0  9996,2 53965  53.2158 211.7227 0001785  52.8660   3.8391 15.08807484  1307,6917.98,95.44,541.08,538.61,0.0
53965.0,STARLINK-4578,PAYLOAD,2022-11-25 20:00:01,15.08851881,0.0001878,53.2159,210.6015,51.6346,283.7474,-0.0014061,-0.00022604,0.0,0 STARLINK-4578,1 53965U 22125B   22329.83334491 -.00022604  00000-0 -14061-2 0  9993,2 53965  53.2159 210.6015 0001878  51.6346 283.7474 15.08851881  8254,6917.844,95.437,541.008,538.41,0.0
53965.0,STARLINK-4578,PAYLOAD,2022-11-25 22:00:00,15.08849913,0.0001944,53.2156,210.2279,50.1003,18.1858,-0.00094499,-0.00015301,0.0,0 STARLINK-4578,1 53965U 22125B   22329.91667824 -.00015301  00000-0 -94499-3 0  9991,2 53965  53.2156 210.2279 0001944  50.1003  18.1858 15.08849913  1305,6917.85,95.437,541.06,538.37,0.0
53965.0,STARLINK-4578,PAYLOAD,2022-11-26 12:00:00,15.08841462,0.0001768,53.2152,207.6079,53.4235,305.1781,0.0014758,0.00023278,0.0,0 STARLINK-4578,1 53965U 22125B   22330.50001157  .00023278  00000-0  14758-2 0  9998,2 53965  53.2152 207.6079 0001768  53.4235 305.1781 15.08841462  8353,6917.876,95.437,540.964,538.518,0.0
53965.0,STARLINK-4578,PAYLOAD,2022-11-26 14:00:01,15.0884737,0.0001774,53.2151,207.2336,54.3371,37.1629,0.00035931,5.436e-05,0.0,0 STARLINK-4578,1 53965U 22125B   22330.58334491  .00005436  00000-0  35931-3 0  9999,2 53965  53.2151 207.2336 0001774  54.3371  37.1629 15.08847370  1307,6917.858,95.437,540.95,538.496,0.0
53965.0,STARLINK-4578,PAYLOAD,2022-11-26 22:00:00,15.0884286,0.0001878,53.215,205.7389,49.9117,53.1978,-0.00096602,-0.00015631,0.0,0 STARLINK-4578,1 53965U 22125B   22330.91667824 -.00015631  00000-0 -96602-3 0  9997,2 53965  53.2150 205.7389 0001878  49.9117  53.1978 15.08842860  1304,6917.871999999999,95.437,541.036,538.437,0.0
53965.0,STARLINK-4578,PAYLOAD,2022-11-27 04:00:00,15.08840823,0.0001861,53.2146,204.6167,45.5858,336.2175,-0.0012781,-0.00020572,0.0,0 STARLINK-4578,1 53965U 22125B   22331.16667824 -.00020572  00000-0 -12781-2 0  9990,2 53965  53.2146 204.6167 0001861  45.5858 336.2175 15.08840823  8451,6917.878000000002,95.438,541.03,538.455,0.0
53965.0,STARLINK-4578,PAYLOAD,2022-11-27 14:00:01,15.08803448,0.0001686,53.2146,202.7444,53.4172,72.8705,0.0024238,0.00038459,0.0,0 STARLINK-4578,1 53965U 22125B   22331.58334491  .00038459  00000-0  24238-2 0  9998,2 53965  53.2146 202.7444 0001686  53.4172  72.8705 15.08803448  1301,6917.9919999999975,95.44,541.023,538.691,0.0
53965.0,STARLINK-4578,PAYLOAD,2022-11-27 22:00:00,15.0882768,0.0001862,53.2145,201.2498,49.4128,88.4442,-0.00074626,-0.00012141,0.0,0 STARLINK-4578,1 53965U 22125B   22331.91667824 -.00012141  00000-0 -74626-3 0  9993,2 53965  53.2145 201.2498 0001862  49.4128  88.4442 15.08827680  1300,6917.918000000002,95.438,541.071,538.495,0.0
53965.0,STARLINK-4578,PAYLOAD,2022-11-28 04:00:00,15.08822362,0.0001883,53.2143,200.1276,46.1795,10.3587,0.0010952,0.00017177,0.0,0 STARLINK-4578,1 53965U 22125B   22332.16667824  .00017177  00000-0  10952-2 0  9994,2 53965  53.2143 200.1276 0001883  46.1795  10.3587 15.08822362  8603,6917.934,95.439,541.102,538.497,0.0
53965.0,STARLINK-4578,PAYLOAD,2022-11-28 22:00:01,15.08841646,0.0001954,53.2145,196.7605,50.2641,122.414,-0.00032387,-5.439e-05,0.0,0 STARLINK-4578,1 53965U 22125B   22332.91668981 -.00005439  00000-0 -32387-3 0  9999,2 53965  53.2145 196.7605 0001954  50.2641 122.4140 15.08841646  1302,6917.875,95.437,541.092,538.389,0.0
53965.0,STARLINK-4578,PAYLOAD,2022-11-29 04:00:00,15.08849016,0.0001952,53.2144,195.6382,46.782,44.5268,-0.00026577,-4.517e-05,0.0,0 STARLINK-4578,1 53965U 22125B   22333.16667824 -.00004517  00000-0 -26577-3 0  9992,2 53965  53.2144 195.6382 0001952  46.7820  44.5268 15.08849016  8758,6917.853,95.437,541.068,538.367,0.0
53965.0,STARLINK-4578,PAYLOAD,2022-11-29 14:00:01,15.08820393,0.0001781999999999,53.2148,193.7658,53.7997,142.0795,0.0013525,0.00021291,0.0,0 STARLINK-4578,1 53965U 22125B   22333.58335648  .00021291  00000-0  13525-2 0  9998,2 53965  53.2148 193.7658 0001782  53.7997 142.0795 15.08820393  1301,6917.94,95.439,541.038,538.573,0.0
53965.0,STARLINK-4578,PAYLOAD,2022-11-29 22:00:00,15.08827464,0.0001981,53.2149,192.2713,48.6826,158.7179,9.0766e-05,1.156e-05,0.0,0 STARLINK-4578,1 53965U 22125B   22333.91667824  .00001156  00000-0  90766-4 0  9991,2 53965  53.2149 192.2713 0001981  48.6826 158.7179 15.08827464  1309,6917.919,95.438,541.154,538.413,0.0
53965.0,STARLINK-4578,PAYLOAD,2022-11-30 12:00:00,15.08819749,0.0001849,53.2153,189.6508,52.6684,85.0135,0.0027464,0.00043668,0.0,0 STARLINK-4578,1 53965U 22125B   22334.50001157  .00043668  00000-0  27464-2 0  9995,2 53965  53.2153 189.6508 0001849  52.6684  85.0135 15.08819749  8955,6917.941999999999,95.439,541.086,538.528,0.0
53965.0,STARLINK-4578,PAYLOAD,2022-11-30 14:00:01,15.08834192,0.0001868,53.2154,189.2757,54.8288,175.8083,0.0017452,0.00027592,0.0,0 STARLINK-4578,1 53965U 22125B   22334.58335648  .00027592  00000-0  17452-2 0  9992,2 53965  53.2154 189.2757 0001868  54.8288 175.8083 15.08834192  1304,6917.898,95.438,541.055,538.471,0.0
53965.0,STARLINK-4578,PAYLOAD,2022-11-30 22:00:00,15.08867366,0.000199,53.2163,187.7791,51.0205,191.1529,-0.0040674,-0.00064491,0.0,0 STARLINK-4578,1 53965U 22125B   22334.91667824 -.00064491  00000-0 -40674-2 0  9996,2 53965  53.2163 187.7791 0001990  51.0205 191.1529 15.08867366  1304,6917.797,95.436,541.038,538.285,0.0
53965.0,STARLINK-4578,PAYLOAD,2022-12-01 04:00:00,15.08866217,0.0002036,53.2155,186.6595,47.4703,113.3967,-0.0032491,-0.00051665,0.0,0 STARLINK-4578,1 53965U 22125B   22335.16667824 -.00051665  00000-0 -32491-2 0  9991,2 53965  53.2155 186.6595 0002036  47.4703 113.3967 15.08866217  9055,6917.8,95.436,541.0740000000002,538.257,0.0
53965.0,STARLINK-4578,PAYLOAD,2022-12-01 14:00:01,15.08826907,0.0001865,53.216,184.7875,53.7129,211.6613,0.0016333,0.00025792,0.0,0 STARLINK-4578,1 53965U 22125B   22335.58334491  .00025792  00000-0  16333-2 0  9995,2 53965  53.2160 184.7875 0001865  53.7129 211.6613 15.08826907  1304,6917.92,95.438,541.076,538.495,0.0
53965.0,STARLINK-4578,PAYLOAD,2022-12-01 20:00:01,15.08842585,0.0002008,53.2159,183.6667,49.3412,134.7883,-0.00079557,-0.00012929,0.0,0 STARLINK-4578,1 53965U 22125B   22335.83335648 -.00012929  00000-0 -79557-3 0  9996,2 53965  53.2159 183.6667 0002008  49.3412 134.7883 15.08842585  9150,6917.871999999999,95.437,541.127,538.3480000000002,0.0
53965.0,STARLINK-4578,PAYLOAD,2022-12-01 22:00:00,15.08827037,0.0002075,53.2161,183.293,48.6346,228.3268,0.0008041,0.00012528,0.0,0 STARLINK-4578,1 53965U 22125B   22335.91667824  .00012528  00000-0  80410-3 0  9992,2 53965  53.2161 183.2930 0002075  48.6346 228.3268 15.08827037  1305,6917.92,95.438,541.22,538.35,0.0
53965.0,STARLINK-4578,PAYLOAD,2022-12-02 14:00:01,15.08840981,0.000191,53.2162,180.2986,55.4702,244.6686,0.0010651,0.00016704,0.0,0 STARLINK-4578,1 53965U 22125B   22336.58334491  .00016704  00000-0  10651-2 0  9996,2 53965  53.2162 180.2986 0001910  55.4702 244.6686 15.08840981  1301,6917.877,95.437,541.064,538.4209999999998,0.0
